{"type": "FeatureCollection", "features": [ {"type": "Feature", "properties": {"norad_id": 36402, "name": "COSMOS 2460 (732)", "group": "gnss", "lat": 62.92337752348004, "lon": 77.94088651693737, "alt_km": 19129.924270346128, "timestamp": "2025-12-09T05:43:20.966615+00:00", "meta": {"OBJECT_NAME": "COSMOS 2460 (732)", "OBJECT_ID": "2010-007C", "EPOCH": "2025-12-08T21:00:03.337632", "MEAN_MOTION": 2.13105944, "ECCENTRICITY": 0.0002841, "INCLINATION": 65.5319, "RA_OF_ASC_NODE": 320.9045, "ARG_OF_PERICENTER": 270.8481, "MEAN_ANOMALY": 272.2789, "EPHEMERIS_TYPE": 0, "CLASSIFICATION_TYPE": "U", "NORAD_CAT_ID": 36402, "ELEMENT_SET_NO": 999, "REV_AT_EPOCH": 12267, "BSTAR": 0, "MEAN_MOTION_DOT": -4.8e-07, "MEAN_MOTION_DDOT": 0}, "tle": {"line1": "1 36402U 10007C   25342.87503863 -.00000048  00000+0  00000+0 0  9990", "line2": "2 36402  65.5319 320.9045 0002841 270.8481 272.2789  2.13105944122678"}}, "geometry": {"type": "Point", "coordinates": [77.94088651693737, 62.92337752348004]}}, {"type": "Feature", "properties": {"norad_id": 36585, "name": "GPS BIIF-1  (PRN 25)", "group": "gnss", "lat": 2.2774148781554304, "lon": 34.58775359357022, "alt_km": 20305.750716903043, "timestamp": "2025-12-09T05:43:20.966627+00:00", "meta": {"OBJECT_NAME": "GPS BIIF-1  (PRN 25)", "OBJECT_ID": "2010-022A", "EPOCH": "2025-12-08T05:43:48.381888", "MEAN_MOTION": 2.00552915, "ECCENTRICITY": 0.01259265, "INCLINATION": 54.3009, "RA_OF_ASC_NODE": 216.2555, "ARG_OF_PERICENTER": 65.0249, "MEAN_ANOMALY": 109.07, "EPHEMERIS_TYPE": 0, "CLASSIFICATION_TYPE": "U", "NORAD_CAT_ID": 36585, "ELEMENT_SET_NO": 999, "REV_AT_EPOCH": 11376, "BSTAR": 0, "MEAN_MOTION_DOT": 2.3e-07, "MEAN_MOTION_DDOT": 0}, "tle": {"line1": "1 36585U 10022A   25342.23875442  .00000023  00000+0  00000+0 0  9996", "line2": "2 36585  54.3009 216.2555 0125926  65.0249 109.0700  2.00552915113761"}}, "geometry": {"type": "Point", "coordinates": [34.58775359357022, 2.2774148781554304]}}, {"type": "Feature", "properties": {"norad_id": 36828, "name": "BEIDOU-2 IGSO-1 (C06)", "group": "gnss", "lat": 51.00014561503431, "lon": -78.15079772368954, "alt_km": 35849.321442733286, "timestamp": "2025-12-09T05:43:20.966639+00:00", "meta": {"OBJECT_NAME": "BEIDOU-2 IGSO-1 (C06)", "OBJECT_ID": "2010-036A", "EPOCH": "2025-12-08T10:41:23.989056", "MEAN_MOTION": 1.00277305, "ECCENTRICITY": 0.0051235, "INCLINATION": 54.2853, "RA_OF_ASC_NODE": 164.6865, "ARG_OF_PERICENTER": 215.8868, "MEAN_ANOMALY": 325.0672, "EPHEMERIS_TYPE": 0, "CLASSIFICATION_TYPE": "U", "NORAD_CAT_ID": 36828, "ELEMENT_SET_NO": 999, "REV_AT_EPOCH": 5618, "BSTAR": 0, "MEAN_MOTION_DOT": -6.9e-07, "MEAN_MOTION_DDOT": 0}, "tle": {"line1": "1 36828U 10036A   25342.44541654 -.00000069  00000+0  00000+0 0  9990", "line2": "2 36828  54.2853 164.6865 0051235 215.8868 325.0672  1.00277305 56186"}}, "geometry": {"type": "Point", "coordinates": [-78.15079772368954, 51.00014561503431]}}, {"type": "Feature", "properties": {"norad_id": 37210, "name": "BEIDOU-2 G4 (C04)", "group": "gnss", "lat": -3.0658649488989513, "lon": -35.7652202078837, "alt_km": 35766.795657057824, "timestamp": "2025-12-09T05:43:20.966651+00:00", "meta": {"OBJECT_NAME": "BEIDOU-2 G4 (C04)", "OBJECT_ID": "2010-057A", "EPOCH": "2025-12-08T19:30:04.457376", "MEAN_MOTION": 1.0027123, "ECCENTRICITY": 0.001099, "INCLINATION": 3.1744, "RA_OF_ASC_NODE": 69.9383, "ARG_OF_PERICENTER": 189.4969, "MEAN_ANOMALY": 270.9695, "EPHEMERIS_TYPE": 0, "CLASSIFICATION_TYPE": "U", "NORAD_CAT_ID": 37210, "ELEMENT_SET_NO": 999, "REV_AT_EPOCH": 5538, "BSTAR": 0, "MEAN_MOTION_DOT": -1.1e-06, "MEAN_MOTION_DDOT": 0}, "tle": {"line1": "1 37210U 10057A   25342.81255159 -.00000110  00000+0  00000+0 0  9999", "line2": "2 37210   3.1744  69.9383 0010990 189.4969 270.9695  1.00271230 55382"}}, "geometry": {"type": "Point", "coordinates": [-35.7652202078837, -3.0658649488989513]}}, {"type": "Feature", "properties": {"norad_id": 37256, "name": "BEIDOU-2 IGSO-2 (C07)", "group": "gnss", "lat": -1.7259325505119516, "lon": -87.38727526447734, "alt_km": 35944.912086670316, "timestamp": "2025-12-09T05:43:20.966664+00:00", "meta": {"OBJECT_NAME": "BEIDOU-2 IGSO-2 (C07)", "OBJECT_ID": "2010-068A", "EPOCH": "2025-12-03T17:22:36.026976", "MEAN_MOTION": 1.0028872, "ECCENTRICITY": 0.0049245, "INCLINATION": 47.9042, "RA_OF_ASC_NODE": 274.2614, "ARG_OF_PERICENTER": 216.1411, "MEAN_ANOMALY": 310.24, "EPHEMERIS_TYPE": 0, "CLASSIFICATION_TYPE": "U", "NORAD_CAT_ID": 37256, "ELEMENT_SET_NO": 999, "REV_AT_EPOCH": 5483, "BSTAR": 0, "MEAN_MOTION_DOT": -2.25e-06, "MEAN_MOTION_DDOT": 0}, "tle": {"line1": "1 37256U 10068A   25337.72402809 -.00000225  00000+0  00000+0 0  9998", "line2": "2 37256  47.9042 274.2614 0049245 216.1411 310.2400  1.00288720 54835"}}, "geometry": {"type": "Point", "coordinates": [-87.38727526447734, -1.7259325505119516]}}, {"type": "Feature", "properties": {"norad_id": 37384, "name": "BEIDOU-2 IGSO-3 (C08)", "group": "gnss", "lat": -42.610169269314554, "lon": -108.94443537274925, "alt_km": 35682.09529254764, "timestamp": "2025-12-09T05:43:20.966676+00:00", "meta": {"OBJECT_NAME": "BEIDOU-2 IGSO-3 (C08)", "OBJECT_ID": "2011-013A", "EPOCH": "2025-12-07T14:00:04.361184", "MEAN_MOTION": 1.00271435, "ECCENTRICITY": 0.0035334, "INCLINATION": 62.1366, "RA_OF_ASC_NODE": 41.9657, "ARG_OF_PERICENTER": 187.0632, "MEAN_ANOMALY": 165.2408, "EPHEMERIS_TYPE": 0, "CLASSIFICATION_TYPE": "U", "NORAD_CAT_ID": 37384, "ELEMENT_SET_NO": 999, "REV_AT_EPOCH": 5373, "BSTAR": 0, "MEAN_MOTION_DOT": -1.91e-06, "MEAN_MOTION_DDOT": 0}, "tle": {"line1": "1 37384U 11013A   25341.58338381 -.00000191  00000+0  00000+0 0  9995", "line2": "2 37384  62.1366  41.9657 0035334 187.0632 165.2408  1.00271435 53735"}}, "geometry": {"type": "Point", "coordinates": [-108.94443537274925, -42.610169269314554]}}, {"type": "Feature", "properties": {"norad_id": 37605, "name": "GSAT-8 (GAGAN/PRN 127)", "group": "gnss", "lat": 1.145450309954971, "lon": -140.89610047646164, "alt_km": 35759.40758949415, "timestamp": "2025-12-09T05:43:20.966689+00:00", "meta": {"OBJECT_NAME": "GSAT-8 (GAGAN/PRN 127)", "OBJECT_ID": "2011-022A", "EPOCH": "2025-12-08T19:00:07.325280", "MEAN_MOTION": 1.00272295, "ECCENTRICITY": 0.0008914, "INCLINATION": 1.6395, "RA_OF_ASC_NODE": 84.2307, "ARG_OF_PERICENTER": 180.6821, "MEAN_ANOMALY": 153.0058, "EPHEMERIS_TYPE": 0, "CLASSIFICATION_TYPE": "U", "NORAD_CAT_ID": 37605, "ELEMENT_SET_NO": 999, "REV_AT_EPOCH": 5130, "BSTAR": 0, "MEAN_MOTION_DOT": 8.6e-07, "MEAN_MOTION_DDOT": 0}, "tle": {"line1": "1 37605U 11022A   25342.79175145  .00000086  00000+0  00000+0 0  9994", "line2": "2 37605   1.6395  84.2307 0008914 180.6821 153.0058  1.00272295 51308"}}, "geometry": {"type": "Point", "coordinates": [-140.89610047646164, 1.145450309954971]}}, {"type": "Feature", "properties": {"norad_id": 37763, "name": "BEIDOU-2 IGSO-4 (C09)", "group": "gnss", "lat": 54.526797032128684, "lon": -102.82363226835436, "alt_km": 36257.832584958094, "timestamp": "2025-12-09T05:43:20.966702+00:00", "meta": {"OBJECT_NAME": "BEIDOU-2 IGSO-4 (C09)", "OBJECT_ID": "2011-038A", "EPOCH": "2025-12-01T12:32:09.960000", "MEAN_MOTION": 1.00284084, "ECCENTRICITY": 0.0148808, "INCLINATION": 54.5806, "RA_OF_ASC_NODE": 167.4476, "ARG_OF_PERICENTER": 230.2017, "MEAN_ANOMALY": 315.0405, "EPHEMERIS_TYPE": 0, "CLASSIFICATION_TYPE": "U", "NORAD_CAT_ID": 37763, "ELEMENT_SET_NO": 999, "REV_AT_EPOCH": 5266, "BSTAR": 0, "MEAN_MOTION_DOT": 1.01e-06, "MEAN_MOTION_DDOT": 0}, "tle": {"line1": "1 37763U 11038A   25335.52233750  .00000101  00000+0  00000+0 0  9994", "line2": "2 37763  54.5806 167.4476 0148808 230.2017 315.0405  1.00284084 52669"}}, "geometry": {"type": "Point", "coordinates": [-102.82363226835436, 54.526797032128684]}}, {"type": "Feature", "properties": {"norad_id": 37846, "name": "GSAT0101 (GALILEO-PFM)", "group": "gnss", "lat": -56.966095485188475, "lon": -98.95470555220406, "alt_km": 23221.464831615394, "timestamp": "2025-12-09T05:43:20.966717+00:00", "meta": {"OBJECT_NAME": "GSAT0101 (GALILEO-PFM)", "OBJECT_ID": "2011-060A", "EPOCH": "2025-12-06T10:45:46.943136", "MEAN_MOTION": 1.70475516, "ECCENTRICITY": 0.00028809, "INCLINATION": 57.0541, "RA_OF_ASC_NODE": 346.9907, "ARG_OF_PERICENTER": 311.6243, "MEAN_ANOMALY": 48.3737, "EPHEMERIS_TYPE": 0, "CLASSIFICATION_TYPE": "U", "NORAD_CAT_ID": 37846, "ELEMENT_SET_NO": 999, "REV_AT_EPOCH": 8783, "BSTAR": 0, "MEAN_MOTION_DOT": -8.1e-07, "MEAN_MOTION_DDOT": 0}, "tle": {"line1": "1 37846U 11060A   25340.44845999 -.00000081  00000+0  00000+0 0  9990", "line2": "2 37846  57.0541 346.9907 0002880 311.6243  48.3737  1.70475516 87832"}}, "geometry": {"type": "Point", "coordinates": [-98.95470555220406, -56.966095485188475]}}, {"type": "Feature", "properties": {"norad_id": 37847, "name": "GSAT0102 (GALILEO-FM2)", "group": "gnss", "lat": -34.35733962282412, "lon": -39.404586894190494, "alt_km": 23212.183556193115, "timestamp": "2025-12-09T05:43:20.966729+00:00", "meta": {"OBJECT_NAME": "GSAT0102 (GALILEO-FM2)", "OBJECT_ID": "2011-060B", "EPOCH": "2025-12-06T01:52:21.849024", "MEAN_MOTION": 1.7047572, "ECCENTRICITY": 0.00048425, "INCLINATION": 57.055, "RA_OF_ASC_NODE": 347.0012, "ARG_OF_PERICENTER": 307.2223, "MEAN_ANOMALY": 230.8964, "EPHEMERIS_TYPE": 0, "CLASSIFICATION_TYPE": "U", "NORAD_CAT_ID": 37847, "ELEMENT_SET_NO": 999, "REV_AT_EPOCH": 8783, "BSTAR": 0, "MEAN_MOTION_DOT": -7.9e-07, "MEAN_MOTION_DDOT": 0}, "tle": {"line1": "1 37847U 11060B   25340.07803066 -.00000079  00000+0  00000+0 0  9996", "line2": "2 37847  57.0550 347.0012 0004842 307.2223 230.8964  1.70475720 87838"}}, "geometry": {"type": "Point", "coordinates": [-39.404586894190494, -34.35733962282412]}}]}